AL MUNTHER              
1 63240U 25052AG  26068.64540749  .00017933  00000+0  65015-3 0  9992
2 63240  97.4001 323.9152 0008027 130.7043 229.4895 15.28381521 54798
STARLINK-36180          
1 67114U 25299N   26068.29547513  .00026728  00000+0  95248-3 0  9999
2 67114  42.9978 171.4194 0001102 319.3332  40.7437 15.28423882 13052
